STARLINK-36362          
1 67424U 26005W   26031.91670139 -.01718671  00000+0 -29616-1 0  9991
2 67424  43.0008  89.2655 0001014 288.3011 334.3343 15.53424662  4278
STARLINK-36447          
1 67425U 26005X   26031.91670139 -.01791707  00000+0 -31004-1 0  9997
2 67425  43.0013  89.2605 0000645 276.8919 347.6562 15.53453038  4277
STARLINK-36146          
1 67426U 26005Y   26031.91670139 -.01703007  00000+0 -29318-1 0  9999
2 67426  43.0009  89.2555 0001043 287.5958 338.8732 15.53421528  4227
STARLINK-36459          
1 67427U 26005Z   26031.91670139 -.01701559  00000+0 -29292-1 0  9991
2 67427  43.0010  89.2499 0001071 284.5582 343.8313 15.53419105  4193
STARLINK-36464          
1 67428U 26005AA  26031.91670139 -.01714898  00000+0 -29545-1 0  9993
2 67428  43.0008  89.2412 0000918 280.1918 352.0296 15.53424020  4273
STARLINK-36513          
1 67429U 26005AB  26031.91670139 -.01746335  00000+0 -30179-1 0  9990
2 67429  43.0013  89.2352 0000739 285.9603 348.2159 15.53401371  4277
STARLINK-36515          
1 67430U 26005AC  26031.91670139 -.01712920  00000+0 -29509-1 0  9990
2 67430  43.0006  89.2455 0001003 283.1531 347.1529 15.53421746  4198
STARLINK-36443          
1 67431U 26005AD  26031.91670139 -.01710521  00000+0 -29466-1 0  9998
2 67431  43.0009  89.2304 0000699 282.3374 353.7198 15.53421001  4224
STARLINK-36460          
1 67432U 26005AE  26031.91670139 -.01710475  00000+0 -29465-1 0  9996
2 67432  43.0012  89.2257 0000751 279.8861 358.0887 15.53420272  4274
YAOGAN-50 01            
1 67433U 26006A   26031.87645784  .00000358  00000+0  15311-3 0  9997
2 67433 142.0315 277.0490 0000664 266.9497  93.1146 13.83252845  2556
CZ-6A R/B               
1 67434U 26006B   26031.88220197  .00001422  00000+0  15937-3 0  9993
2 67434 142.0436 288.1730 0203222 215.9738 142.7155 14.62288480  2685
HULIANWANG DIGUI-137    
1 67435U 26007A   26031.81076834  .00000023  00000+0  15171-3 0  9991
2 67435  50.0077 222.2225 0001218 163.0440 197.0497 13.82942218  2530
