CCSDS_OMM_VERS = 2.0
CREATION_DATE  = 
ORIGINATOR     = 

OBJECT_NAME    = STARLINK-36362
OBJECT_ID      = 2026-005W
CENTER_NAME    = EARTH
REF_FRAME      = TEME
TIME_SYSTEM    = UTC
MEAN_ELEMENT_THEORY = SGP/SGP4

EPOCH          = 2026-01-31T22:00:03.000096
MEAN_MOTION    = 15.53424662
ECCENTRICITY   = .00010147
INCLINATION    = 43.0008
RA_OF_ASC_NODE = 89.2655
ARG_OF_PERICENTER = 288.3011
MEAN_ANOMALY   = 334.3343

EPHEMERIS_TYPE = 0
CLASSIFICATION_TYPE = U
NORAD_CAT_ID   = 67424
ELEMENT_SET_NO = 999
REV_AT_EPOCH   = 427
BSTAR          = -.29616197E-1
MEAN_MOTION_DOT = -.1718671E-1
MEAN_MOTION_DDOT = 0

CCSDS_OMM_VERS = 2.0
CREATION_DATE  = 
ORIGINATOR     = 

OBJECT_NAME    = STARLINK-36447
OBJECT_ID      = 2026-005X
CENTER_NAME    = EARTH
REF_FRAME      = TEME
TIME_SYSTEM    = UTC
MEAN_ELEMENT_THEORY = SGP/SGP4

EPOCH          = 2026-01-31T22:00:03.000096
MEAN_MOTION    = 15.53453038
ECCENTRICITY   = .00006458
INCLINATION    = 43.0013
RA_OF_ASC_NODE = 89.2605
ARG_OF_PERICENTER = 276.8919
MEAN_ANOMALY   = 347.6562

EPHEMERIS_TYPE = 0
CLASSIFICATION_TYPE = U
NORAD_CAT_ID   = 67425
ELEMENT_SET_NO = 999
REV_AT_EPOCH   = 427
BSTAR          = -.31003927E-1
MEAN_MOTION_DOT = -.1791707E-1
MEAN_MOTION_DDOT = 0

CCSDS_OMM_VERS = 2.0
CREATION_DATE  = 
ORIGINATOR     = 

OBJECT_NAME    = STARLINK-36146
OBJECT_ID      = 2026-005Y
CENTER_NAME    = EARTH
REF_FRAME      = TEME
TIME_SYSTEM    = UTC
MEAN_ELEMENT_THEORY = SGP/SGP4

EPOCH          = 2026-01-31T22:00:03.000096
MEAN_MOTION    = 15.53421528
ECCENTRICITY   = .00010435
INCLINATION    = 43.0009
RA_OF_ASC_NODE = 89.2555
ARG_OF_PERICENTER = 287.5958
MEAN_ANOMALY   = 338.8732

EPHEMERIS_TYPE = 0
CLASSIFICATION_TYPE = U
NORAD_CAT_ID   = 67426
ELEMENT_SET_NO = 999
REV_AT_EPOCH   = 422
BSTAR          = -.29317518E-1
MEAN_MOTION_DOT = -.1703007E-1
MEAN_MOTION_DDOT = 0

CCSDS_OMM_VERS = 2.0
CREATION_DATE  = 
ORIGINATOR     = 

OBJECT_NAME    = STARLINK-36459
OBJECT_ID      = 2026-005Z
CENTER_NAME    = EARTH
REF_FRAME      = TEME
TIME_SYSTEM    = UTC
MEAN_ELEMENT_THEORY = SGP/SGP4

EPOCH          = 2026-01-31T22:00:03.000096
MEAN_MOTION    = 15.53419105
ECCENTRICITY   = .00010719
INCLINATION    = 43.0010
RA_OF_ASC_NODE = 89.2499
ARG_OF_PERICENTER = 284.5582
MEAN_ANOMALY   = 343.8313

EPHEMERIS_TYPE = 0
CLASSIFICATION_TYPE = U
NORAD_CAT_ID   = 67427
ELEMENT_SET_NO = 999
REV_AT_EPOCH   = 419
BSTAR          = -.29291998E-1
MEAN_MOTION_DOT = -.1701559E-1
MEAN_MOTION_DDOT = 0

CCSDS_OMM_VERS = 2.0
CREATION_DATE  = 
ORIGINATOR     = 

OBJECT_NAME    = STARLINK-36464
OBJECT_ID      = 2026-005AA
CENTER_NAME    = EARTH
REF_FRAME      = TEME
TIME_SYSTEM    = UTC
MEAN_ELEMENT_THEORY = SGP/SGP4

EPOCH          = 2026-01-31T22:00:03.000096
MEAN_MOTION    = 15.53424020
ECCENTRICITY   = .00009187
INCLINATION    = 43.0008
RA_OF_ASC_NODE = 89.2412
ARG_OF_PERICENTER = 280.1918
MEAN_ANOMALY   = 352.0296

EPHEMERIS_TYPE = 0
CLASSIFICATION_TYPE = U
NORAD_CAT_ID   = 67428
ELEMENT_SET_NO = 999
REV_AT_EPOCH   = 427
BSTAR          = -.29545025E-1
MEAN_MOTION_DOT = -.1714898E-1
MEAN_MOTION_DDOT = 0

CCSDS_OMM_VERS = 2.0
CREATION_DATE  = 
ORIGINATOR     = 

OBJECT_NAME    = STARLINK-36513
OBJECT_ID      = 2026-005AB
CENTER_NAME    = EARTH
REF_FRAME      = TEME
TIME_SYSTEM    = UTC
MEAN_ELEMENT_THEORY = SGP/SGP4

EPOCH          = 2026-01-31T22:00:03.000096
MEAN_MOTION    = 15.53401371
ECCENTRICITY   = .00007395
INCLINATION    = 43.0013
RA_OF_ASC_NODE = 89.2352
ARG_OF_PERICENTER = 285.9603
MEAN_ANOMALY   = 348.2159

EPHEMERIS_TYPE = 0
CLASSIFICATION_TYPE = U
NORAD_CAT_ID   = 67429
ELEMENT_SET_NO = 999
REV_AT_EPOCH   = 427
BSTAR          = -.30179297E-1
MEAN_MOTION_DOT = -.1746335E-1
MEAN_MOTION_DDOT = 0

CCSDS_OMM_VERS = 2.0
CREATION_DATE  = 
ORIGINATOR     = 

OBJECT_NAME    = STARLINK-36515
OBJECT_ID      = 2026-005AC
CENTER_NAME    = EARTH
REF_FRAME      = TEME
TIME_SYSTEM    = UTC
MEAN_ELEMENT_THEORY = SGP/SGP4

EPOCH          = 2026-01-31T22:00:03.000096
MEAN_MOTION    = 15.53421746
ECCENTRICITY   = .00010034
INCLINATION    = 43.0006
RA_OF_ASC_NODE = 89.2455
ARG_OF_PERICENTER = 283.1531
MEAN_ANOMALY   = 347.1529

EPHEMERIS_TYPE = 0
CLASSIFICATION_TYPE = U
NORAD_CAT_ID   = 67430
ELEMENT_SET_NO = 999
REV_AT_EPOCH   = 419
BSTAR          = -.29508561E-1
MEAN_MOTION_DOT = -.171292E-1
MEAN_MOTION_DDOT = 0

CCSDS_OMM_VERS = 2.0
CREATION_DATE  = 
ORIGINATOR     = 

OBJECT_NAME    = STARLINK-36443
OBJECT_ID      = 2026-005AD
CENTER_NAME    = EARTH
REF_FRAME      = TEME
TIME_SYSTEM    = UTC
MEAN_ELEMENT_THEORY = SGP/SGP4

EPOCH          = 2026-01-31T22:00:03.000096
MEAN_MOTION    = 15.53421001
ECCENTRICITY   = .00006994
INCLINATION    = 43.0009
RA_OF_ASC_NODE = 89.2304
ARG_OF_PERICENTER = 282.3374
MEAN_ANOMALY   = 353.7198

EPHEMERIS_TYPE = 0
CLASSIFICATION_TYPE = U
NORAD_CAT_ID   = 67431
ELEMENT_SET_NO = 999
REV_AT_EPOCH   = 422
BSTAR          = -.29465936E-1
MEAN_MOTION_DOT = -.1710521E-1
MEAN_MOTION_DDOT = 0

CCSDS_OMM_VERS = 2.0
CREATION_DATE  = 
ORIGINATOR     = 

OBJECT_NAME    = STARLINK-36460
OBJECT_ID      = 2026-005AE
CENTER_NAME    = EARTH
REF_FRAME      = TEME
TIME_SYSTEM    = UTC
MEAN_ELEMENT_THEORY = SGP/SGP4

EPOCH          = 2026-01-31T22:00:03.000096
MEAN_MOTION    = 15.53420272
ECCENTRICITY   = .00007518
INCLINATION    = 43.0012
RA_OF_ASC_NODE = 89.2257
ARG_OF_PERICENTER = 279.8861
MEAN_ANOMALY   = 358.0887

EPHEMERIS_TYPE = 0
CLASSIFICATION_TYPE = U
NORAD_CAT_ID   = 67432
ELEMENT_SET_NO = 999
REV_AT_EPOCH   = 427
BSTAR          = -.29465374E-1
MEAN_MOTION_DOT = -.1710475E-1
MEAN_MOTION_DDOT = 0

CCSDS_OMM_VERS = 2.0
CREATION_DATE  = 
ORIGINATOR     = 

OBJECT_NAME    = YAOGAN-50 01
OBJECT_ID      = 2026-006A
CENTER_NAME    = EARTH
REF_FRAME      = TEME
TIME_SYSTEM    = UTC
MEAN_ELEMENT_THEORY = SGP/SGP4

EPOCH          = 2026-01-31T21:02:05.957376
MEAN_MOTION    = 13.83252845
ECCENTRICITY   = .00006649
INCLINATION    = 142.0315
RA_OF_ASC_NODE = 277.0490
ARG_OF_PERICENTER = 266.9497
MEAN_ANOMALY   = 93.1146

EPHEMERIS_TYPE = 0
CLASSIFICATION_TYPE = U
NORAD_CAT_ID   = 67433
ELEMENT_SET_NO = 999
REV_AT_EPOCH   = 255
BSTAR          = .15311359E-3
MEAN_MOTION_DOT = .358E-5
MEAN_MOTION_DDOT = 0

CCSDS_OMM_VERS = 2.0
CREATION_DATE  = 
ORIGINATOR     = 

OBJECT_NAME    = CZ-6A R/B
OBJECT_ID      = 2026-006B
CENTER_NAME    = EARTH
REF_FRAME      = TEME
TIME_SYSTEM    = UTC
MEAN_ELEMENT_THEORY = SGP/SGP4

EPOCH          = 2026-01-31T21:10:22.250208
MEAN_MOTION    = 14.62288480
ECCENTRICITY   = .02032222
INCLINATION    = 142.0436
RA_OF_ASC_NODE = 288.1730
ARG_OF_PERICENTER = 215.9738
MEAN_ANOMALY   = 142.7155

EPHEMERIS_TYPE = 0
CLASSIFICATION_TYPE = U
NORAD_CAT_ID   = 67434
ELEMENT_SET_NO = 999
REV_AT_EPOCH   = 268
BSTAR          = .15937005E-3
MEAN_MOTION_DOT = .1422E-4
MEAN_MOTION_DDOT = 0

CCSDS_OMM_VERS = 2.0
CREATION_DATE  = 
ORIGINATOR     = 

OBJECT_NAME    = HULIANWANG DIGUI-137
OBJECT_ID      = 2026-007A
CENTER_NAME    = EARTH
REF_FRAME      = TEME
TIME_SYSTEM    = UTC
MEAN_ELEMENT_THEORY = SGP/SGP4

EPOCH          = 2026-01-31T19:27:30.384576
MEAN_MOTION    = 13.82942218
ECCENTRICITY   = .00012185
INCLINATION    = 50.0077
RA_OF_ASC_NODE = 222.2225
ARG_OF_PERICENTER = 163.0440
MEAN_ANOMALY   = 197.0497

EPHEMERIS_TYPE = 0
CLASSIFICATION_TYPE = U
NORAD_CAT_ID   = 67435
ELEMENT_SET_NO = 999
REV_AT_EPOCH   = 253
BSTAR          = .15171127E-3
MEAN_MOTION_DOT = .23E-6
MEAN_MOTION_DDOT = 0

